CCSDS_OMM_VERS = 2.0
CREATION_DATE  = 
ORIGINATOR     = 

OBJECT_NAME    = DELTA 2 R/B(1)
OBJECT_ID      = 1990-008B
CENTER_NAME    = EARTH
REF_FRAME      = TEME
TIME_SYSTEM    = UTC
MEAN_ELEMENT_THEORY = SGP/SGP4

EPOCH          = 2025-12-24T13:41:40.338528
MEAN_MOTION    = 15.46182265
ECCENTRICITY   = .01102863
INCLINATION    = 35.6078
RA_OF_ASC_NODE = 304.0816
ARG_OF_PERICENTER = 285.7253
MEAN_ANOMALY   = 73.1339

EPHEMERIS_TYPE = 0
CLASSIFICATION_TYPE = U
NORAD_CAT_ID   = 20453
ELEMENT_SET_NO = 999
REV_AT_EPOCH   = 91446
BSTAR          = .77080934E-3
MEAN_MOTION_DOT = .4978E-3
MEAN_MOTION_DDOT = 0

CCSDS_OMM_VERS = 2.0
CREATION_DATE  = 
ORIGINATOR     = 

OBJECT_NAME    = COSMOS 2058
OBJECT_ID      = 1990-010A
CENTER_NAME    = EARTH
REF_FRAME      = TEME
TIME_SYSTEM    = UTC
MEAN_ELEMENT_THEORY = SGP/SGP4

EPOCH          = 2025-12-25T19:23:26.011680
MEAN_MOTION    = 15.10597923
ECCENTRICITY   = .000954
INCLINATION    = 82.4709
RA_OF_ASC_NODE = 120.1774
ARG_OF_PERICENTER = 223.2716
MEAN_ANOMALY   = 136.7765

EPHEMERIS_TYPE = 0
CLASSIFICATION_TYPE = U
NORAD_CAT_ID   = 20465
ELEMENT_SET_NO = 999
REV_AT_EPOCH   = 93108
BSTAR          = .31289E-3
MEAN_MOTION_DOT = .5199E-4
MEAN_MOTION_DDOT = 0

CCSDS_OMM_VERS = 2.0
CREATION_DATE  = 
ORIGINATOR     = 

OBJECT_NAME    = SL-14 R/B
OBJECT_ID      = 1990-010B
CENTER_NAME    = EARTH
REF_FRAME      = TEME
TIME_SYSTEM    = UTC
MEAN_ELEMENT_THEORY = SGP/SGP4

EPOCH          = 2025-12-25T10:13:46.064640
MEAN_MOTION    = 14.83482828
ECCENTRICITY   = .0019736
INCLINATION    = 82.5023
RA_OF_ASC_NODE = 337.1314
ARG_OF_PERICENTER = 179.9733
MEAN_ANOMALY   = 180.1487

EPHEMERIS_TYPE = 0
CLASSIFICATION_TYPE = U
NORAD_CAT_ID   = 20466
ELEMENT_SET_NO = 999
REV_AT_EPOCH   = 91747
BSTAR          = .58718E-4
MEAN_MOTION_DOT = .508E-5
MEAN_MOTION_DDOT = 0

CCSDS_OMM_VERS = 2.0
CREATION_DATE  = 
ORIGINATOR     = 

OBJECT_NAME    = SL-14 R/B
OBJECT_ID      = 1990-018B
CENTER_NAME    = EARTH
REF_FRAME      = TEME
TIME_SYSTEM    = UTC
MEAN_ELEMENT_THEORY = SGP/SGP4

EPOCH          = 2025-12-25T20:17:04.661376
MEAN_MOTION    = 14.82060038
ECCENTRICITY   = .0015862
INCLINATION    = 82.5221
RA_OF_ASC_NODE = 292.1161
ARG_OF_PERICENTER = 340.5008
MEAN_ANOMALY   = 19.5597

EPHEMERIS_TYPE = 0
CLASSIFICATION_TYPE = U
NORAD_CAT_ID   = 20511
ELEMENT_SET_NO = 999
REV_AT_EPOCH   = 91164
BSTAR          = .67441E-4
MEAN_MOTION_DOT = .56E-5
MEAN_MOTION_DDOT = 0

CCSDS_OMM_VERS = 2.0
CREATION_DATE  = 
ORIGINATOR     = 

OBJECT_NAME    = HST
OBJECT_ID      = 1990-037B
CENTER_NAME    = EARTH
REF_FRAME      = TEME
TIME_SYSTEM    = UTC
MEAN_ELEMENT_THEORY = SGP/SGP4

EPOCH          = 2025-12-25T20:29:13.333056
MEAN_MOTION    = 15.28210236
ECCENTRICITY   = .0002453
INCLINATION    = 28.4656
RA_OF_ASC_NODE = 183.2171
ARG_OF_PERICENTER = 30.0168
MEAN_ANOMALY   = 330.0567

EPHEMERIS_TYPE = 0
CLASSIFICATION_TYPE = U
NORAD_CAT_ID   = 20580
ELEMENT_SET_NO = 999
REV_AT_EPOCH   = 76200
BSTAR          = .21341E-3
MEAN_MOTION_DOT = .6262E-4
MEAN_MOTION_DDOT = 0

CCSDS_OMM_VERS = 2.0
CREATION_DATE  = 
ORIGINATOR     = 

OBJECT_NAME    = SL-16 R/B
OBJECT_ID      = 1990-046B
CENTER_NAME    = EARTH
REF_FRAME      = TEME
TIME_SYSTEM    = UTC
MEAN_ELEMENT_THEORY = SGP/SGP4

EPOCH          = 2025-12-25T16:22:59.344320
MEAN_MOTION    = 14.14997410
ECCENTRICITY   = .0012281
INCLINATION    = 70.9992
RA_OF_ASC_NODE = 93.3410
ARG_OF_PERICENTER = 50.9763
MEAN_ANOMALY   = 309.2451

EPHEMERIS_TYPE = 0
CLASSIFICATION_TYPE = U
NORAD_CAT_ID   = 20625
ELEMENT_SET_NO = 999
REV_AT_EPOCH   = 83792
BSTAR          = -.33952E-4
MEAN_MOTION_DOT = -.113E-5
MEAN_MOTION_DDOT = 0

CCSDS_OMM_VERS = 2.0
CREATION_DATE  = 
ORIGINATOR     = 

OBJECT_NAME    = COSMOS 2084
OBJECT_ID      = 1990-055A
CENTER_NAME    = EARTH
REF_FRAME      = TEME
TIME_SYSTEM    = UTC
MEAN_ELEMENT_THEORY = SGP/SGP4

EPOCH          = 2025-12-25T18:57:12.957120
MEAN_MOTION    = 15.05093678
ECCENTRICITY   = .002963
INCLINATION    = 62.7886
RA_OF_ASC_NODE = 227.5249
ARG_OF_PERICENTER = 176.4494
MEAN_ANOMALY   = 183.6822

EPHEMERIS_TYPE = 0
CLASSIFICATION_TYPE = U
NORAD_CAT_ID   = 20663
ELEMENT_SET_NO = 999
REV_AT_EPOCH   = 92519
BSTAR          = .20972E-3
MEAN_MOTION_DOT = .2821E-4
MEAN_MOTION_DDOT = 0

CCSDS_OMM_VERS = 2.0
CREATION_DATE  = 
ORIGINATOR     = 

OBJECT_NAME    = SL-6 R/B(2)
OBJECT_ID      = 1990-055D
CENTER_NAME    = EARTH
REF_FRAME      = TEME
TIME_SYSTEM    = UTC
MEAN_ELEMENT_THEORY = SGP/SGP4

EPOCH          = 2025-12-25T17:45:44.275392
MEAN_MOTION    = 15.03133991
ECCENTRICITY   = .0014252
INCLINATION    = 62.7827
RA_OF_ASC_NODE = 145.2403
ARG_OF_PERICENTER = 317.7945
MEAN_ANOMALY   = 42.2056

EPHEMERIS_TYPE = 0
CLASSIFICATION_TYPE = U
NORAD_CAT_ID   = 20666
ELEMENT_SET_NO = 999
REV_AT_EPOCH   = 92707
BSTAR          = .20754E-3
MEAN_MOTION_DOT = .2624E-4
MEAN_MOTION_DDOT = 0

CCSDS_OMM_VERS = 2.0
CREATION_DATE  = 
ORIGINATOR     = 

OBJECT_NAME    = SL-8 R/B
OBJECT_ID      = 1990-078B
CENTER_NAME    = EARTH
REF_FRAME      = TEME
TIME_SYSTEM    = UTC
MEAN_ELEMENT_THEORY = SGP/SGP4

EPOCH          = 2025-12-25T07:42:56.469888
MEAN_MOTION    = 14.86383014
ECCENTRICITY   = .0370135
INCLINATION    = 82.9065
RA_OF_ASC_NODE = 318.0443
ARG_OF_PERICENTER = 263.5334
MEAN_ANOMALY   = 92.3626

EPHEMERIS_TYPE = 0
CLASSIFICATION_TYPE = U
NORAD_CAT_ID   = 20775
ELEMENT_SET_NO = 999
REV_AT_EPOCH   = 79824
BSTAR          = .5145E-3
MEAN_MOTION_DOT = .16671E-3
MEAN_MOTION_DDOT = 0

CCSDS_OMM_VERS = 2.0
CREATION_DATE  = 
ORIGINATOR     = 

OBJECT_NAME    = SL-8 R/B
OBJECT_ID      = 1991-006B
CENTER_NAME    = EARTH
REF_FRAME      = TEME
TIME_SYSTEM    = UTC
MEAN_ELEMENT_THEORY = SGP/SGP4

EPOCH          = 2025-12-25T18:06:48.307392
MEAN_MOTION    = 13.77492642
ECCENTRICITY   = .0021295
INCLINATION    = 82.9414
RA_OF_ASC_NODE = 225.0320
ARG_OF_PERICENTER = 241.1225
MEAN_ANOMALY   = 189.5722

EPHEMERIS_TYPE = 0
CLASSIFICATION_TYPE = U
NORAD_CAT_ID   = 21088
ELEMENT_SET_NO = 999
REV_AT_EPOCH   = 75389
BSTAR          = .94982E-4
MEAN_MOTION_DOT = .11E-5
MEAN_MOTION_DDOT = 0

CCSDS_OMM_VERS = 2.0
CREATION_DATE  = 
ORIGINATOR     = 

OBJECT_NAME    = OKEAN-3
OBJECT_ID      = 1991-039A
CENTER_NAME    = EARTH
REF_FRAME      = TEME
TIME_SYSTEM    = UTC
MEAN_ELEMENT_THEORY = SGP/SGP4

EPOCH          = 2025-12-25T14:06:31.504032
MEAN_MOTION    = 15.04196552
ECCENTRICITY   = .0013638
INCLINATION    = 82.5164
RA_OF_ASC_NODE = 48.6106
ARG_OF_PERICENTER = 216.5812
MEAN_ANOMALY   = 143.4484

EPHEMERIS_TYPE = 0
CLASSIFICATION_TYPE = U
NORAD_CAT_ID   = 21397
ELEMENT_SET_NO = 999
REV_AT_EPOCH   = 85389
BSTAR          = .19652E-3
MEAN_MOTION_DOT = .2761E-4
MEAN_MOTION_DDOT = 0

CCSDS_OMM_VERS = 2.0
CREATION_DATE  = 
ORIGINATOR     = 

OBJECT_NAME    = COSMOS 2151
OBJECT_ID      = 1991-042A
CENTER_NAME    = EARTH
REF_FRAME      = TEME
TIME_SYSTEM    = UTC
MEAN_ELEMENT_THEORY = SGP/SGP4

EPOCH          = 2025-12-25T20:00:59.252832
MEAN_MOTION    = 14.99735042
ECCENTRICITY   = .0011517
INCLINATION    = 82.4966
RA_OF_ASC_NODE = 154.8840
ARG_OF_PERICENTER = 313.6897
MEAN_ANOMALY   = 46.3371

EPHEMERIS_TYPE = 0
CLASSIFICATION_TYPE = U
NORAD_CAT_ID   = 21422
ELEMENT_SET_NO = 999
REV_AT_EPOCH   = 85212
BSTAR          = .1862E-3
MEAN_MOTION_DOT = .2327E-4
MEAN_MOTION_DDOT = 0

