DELTA 2 R/B(1)          
1 20453U 90008B   25358.57060577  .00049780  00000+0  77081-3 0  9994
2 20453  35.6078 304.0816 0110286 285.7253  73.1339 15.46182265914467
COSMOS 2058             
1 20465U 90010A   25359.80793995  .00005199  00000+0  31289-3 0  9990
2 20465  82.4709 120.1774 0009540 223.2716 136.7765 15.10597923931080
SL-14 R/B               
1 20466U 90010B   25359.42622760  .00000508  00000+0  58718-4 0  9996
2 20466  82.5023 337.1314 0019736 179.9733 180.1487 14.83482828917472
SL-14 R/B               
1 20511U 90018B   25359.84519284  .00000560  00000+0  67441-4 0  9998
2 20511  82.5221 292.1161 0015862 340.5008  19.5597 14.82060038911644
HST                     
1 20580U 90037B   25359.85362654  .00006262  00000+0  21341-3 0  9996
2 20580  28.4656 183.2171 0002453  30.0168 330.0567 15.28210236762002
SL-16 R/B               
1 20625U 90046B   25359.68263130 -.00000113  00000+0 -33952-4 0  9999
2 20625  70.9992  93.3410 0012281  50.9763 309.2451 14.14997410837920
COSMOS 2084             
1 20663U 90055A   25359.78973330  .00002821  00000+0  20972-3 0  9995
2 20663  62.7886 227.5249 0029630 176.4494 183.6822 15.05093678925192
SL-6 R/B(2)             
1 20666U 90055D   25359.74009578  .00002624  00000+0  20754-3 0  9997
2 20666  62.7827 145.2403 0014252 317.7945  42.2056 15.03133991927072
SL-8 R/B                
1 20775U 90078B   25359.32148692  .00016671  00000+0  51450-3 0  9992
2 20775  82.9065 318.0443 0370135 263.5334  92.3626 14.86383014798247
SL-8 R/B                
1 21088U 91006B   25359.75472578  .00000110  00000+0  94982-4 0  9991
2 21088  82.9414 225.0320 0021295 241.1225 189.5722 13.77492642753890
OKEAN-3                 
1 21397U 91039A   25359.58786463  .00002761  00000+0  19652-3 0  9996
2 21397  82.5164  48.6106 0013638 216.5812 143.4484 15.04196552853890
COSMOS 2151             
1 21422U 91042A   25359.83401913  .00002327  00000+0  18620-3 0  9993
2 21422  82.4966 154.8840 0011517 313.6897  46.3371 14.99735042852126
